NORAD_CAT_ID,OBJECT_NAME,OBJECT_TYPE,EPOCH,MEAN_MOTION,ECCENTRICITY,INCLINATION,RA_OF_ASC_NODE,ARG_OF_PERICENTER,MEAN_ANOMALY,BSTAR,MEAN_MOTION_DOT,MEAN_MOTION_DDOT,TLE_LINE0,TLE_LINE1,TLE_LINE2,SEMIMAJOR_AXIS,PERIOD,APOGEE,PERIGEE,DECAYED
55756.0,STARLINK-5614,PAYLOAD,2024-04-29 19:11:54,14.98330429,0.0003651,69.9989,155.9946,272.1307,87.9434,4.1455e-05,4.02e-06,0.0,0 STARLINK-5614,1 55756U 23028R   24120.79994087  .00000402  00000-0  41455-4 0  9994,2 55756  69.9989 155.9946 0003651 272.1307  87.9434 14.98330429 64352,6950.192,96.107,574.594,569.519,0.0
55756.0,STARLINK-5614,PAYLOAD,2024-04-30 04:48:43,14.98326822,0.0003707,69.9987,154.9844,273.3131,86.7604,0.00017141,1.953e-05,0.0,0 STARLINK-5614,1 55756U 23028R   24121.20050125  .00001953  00000-0  17141-3 0  9993,2 55756  69.9987 154.9844 0003707 273.3131  86.7604 14.98326822 64411,6950.203,96.107,574.644,569.491,0.0
55756.0,STARLINK-5614,PAYLOAD,2024-04-30 11:13:15,14.98328962,0.000367,69.9988,154.3112,273.0682,87.0057,0.00018746,2.144e-05,0.0,0 STARLINK-5614,1 55756U 23028R   24121.46754023  .00002144  00000-0  18746-3 0  9994,2 55756  69.9988 154.3112 0003670 273.0682  87.0057 14.98328962 64458,6950.196,96.107,574.612,569.51,0.0
55756.0,STARLINK-5614,PAYLOAD,2024-04-30 19:13:55,14.98331486,0.0003666,69.9987,153.4697,271.6998,88.3741,0.00015192,1.72e-05,0.0,0 STARLINK-5614,1 55756U 23028R   24121.80133964  .00001720  00000-0  15192-3 0  9998,2 55756  69.9987 153.4697 0003666 271.6998  88.3741 14.98331486 64509,6950.188,96.107,574.601,569.505,0.0
55756.0,STARLINK-5614,PAYLOAD,2024-05-01 04:50:44,14.98333872,0.0003646,69.9988,152.4599,271.329,88.7452,9.1455e-05,9.98e-06,0.0,0 STARLINK-5614,1 55756U 23028R   24122.20189940  .00000998  00000-0  91455-4 0  9991,2 55756  69.9988 152.4599 0003646 271.3290  88.7452 14.98333872 64560,6950.181,96.107,574.58,569.512,0.0
55756.0,STARLINK-5614,PAYLOAD,2024-05-01 08:03:00,14.98334761,0.0003644,69.9988,152.1233,271.1258,88.9484,9.7828e-05,1.075e-05,0.0,0 STARLINK-5614,1 55756U 23028R   24122.33541832  .00001075  00000-0  97828-4 0  9994,2 55756  69.9988 152.1233 0003644 271.1258  88.9484 14.98334761 64589,6950.178,96.107,574.576,569.511,0.0
55756.0,STARLINK-5614,PAYLOAD,2024-05-01 19:15:56,14.98332054,0.000362,69.9992,150.9469,274.0249,86.0496,8.1185e-05,8.76e-06,0.0,0 STARLINK-5614,1 55756U 23028R   24122.80274043  .00000876  00000-0  81185-4 0  9990,2 55756  69.9992 150.9469 0003620 274.0249  86.0496 14.98332054 64650,6950.187,96.107,574.568,569.536,0.0
55756.0,STARLINK-5614,PAYLOAD,2024-05-02 04:52:48,14.98297712,0.0003473,69.9986,149.9352,272.5864,87.4897,-0.00038575,-4.689e-05,0.0,0 STARLINK-5614,1 55756U 23028R   24123.20333656 -.00004689  00000-0 -38575-3 0  9993,2 55756  69.9986 149.9352 0003473 272.5864  87.4897 14.98297712 64712,6950.293,96.109,574.572,569.744,0.0
55756.0,STARLINK-5614,PAYLOAD,2024-05-02 11:17:18,14.98323478,0.0003389,69.9987,149.2618,271.8076,88.2695,-8.1961e-05,-1.071e-05,0.0,0 STARLINK-5614,1 55756U 23028R   24123.47035572 -.00001071  00000-0 -81961-4 0  9998,2 55756  69.9987 149.2618 0003389 271.8076  88.2695 14.98323478 64752,6950.213,96.107,574.433,569.723,0.0
55756.0,STARLINK-5614,PAYLOAD,2024-05-03 04:54:46,14.98330573,0.0003494,69.9982,147.41,271.8085,88.2674,1.811e-05,1.23e-06,0.0,0 STARLINK-5614,1 55756U 23028R   24124.20471003  .00000123  00000-0  18110-4 0  9994,2 55756  69.9982 147.4100 0003494 271.8085  88.2674 14.98330573 64863,6950.191,96.107,574.485,569.628,0.0
55756.0,STARLINK-5614,PAYLOAD,2024-05-03 11:19:18,14.98335886,0.0003791,69.9979,146.737,274.0578,86.0148,3.844e-05,3.66e-06,0.0,0 STARLINK-5614,1 55756U 23028R   24124.47174595  .00000366  00000-0  38440-4 0  9996,2 55756  69.9979 146.7370 0003791 274.0578  86.0148 14.98335886 64901,6950.175,96.107,574.675,569.405,0.0
55756.0,STARLINK-5614,PAYLOAD,2024-05-03 19:19:59,14.98312175,0.0003449,69.9981,145.8951,272.8193,87.2571,0.00045123,5.293e-05,0.0,0 STARLINK-5614,1 55756U 23028R   24124.80554834  .00005293  00000-0  45123-3 0  9990,2 55756  69.9981 145.8951 0003449 272.8193  87.2571 14.98312175 64952,6950.248,96.108,574.51,569.716,0.0
55756.0,STARLINK-5614,PAYLOAD,2024-05-04 04:56:47,14.98319245,0.0003308,69.9981,144.8851,272.3548,87.7232,0.00040599,4.753e-05,0.0,0 STARLINK-5614,1 55756U 23028R   24125.20611033  .00004753  00000-0  40599-3 0  9992,2 55756  69.9981 144.8851 0003308 272.3548  87.7232 14.98319245 65015,6950.226,96.108,574.39,569.792,0.0
55756.0,STARLINK-5614,PAYLOAD,2024-05-05 04:58:48,14.98342887,0.0003367,69.9982,142.3601,272.2026,87.8747,0.00014244,1.607e-05,0.0,0 STARLINK-5614,1 55756U 23028R   24126.20750037  .00001607  00000-0  14244-3 0  9994,2 55756  69.9982 142.3601 0003367 272.2026  87.8747 14.98342887 65163,6950.153,96.106,574.358,569.678,0.0
55756.0,STARLINK-5614,PAYLOAD,2024-05-05 11:23:19,14.98345542,0.0003372,69.9982,141.6868,272.2905,87.7868,0.00015391,1.745e-05,0.0,0 STARLINK-5614,1 55756U 23028R   24126.47453689  .00001745  00000-0  15391-3 0  9993,2 55756  69.9982 141.6868 0003372 272.2905  87.7868 14.98345542 65201,6950.145,96.106,574.353,569.666,0.0
55756.0,STARLINK-5614,PAYLOAD,2024-05-06 05:00:48,14.98342077,0.0003324,69.9984,139.8352,272.2668,87.8111,6.1146e-05,6.37e-06,0.0,0 STARLINK-5614,1 55756U 23028R   24127.20889515  .00000637  00000-0  61146-4 0  9995,2 55756  69.9984 139.8352 0003324 272.2668  87.8111 14.98342077 65317,6950.156,96.106,574.331,569.71,0.0
55756.0,STARLINK-5614,PAYLOAD,2024-05-06 11:25:20,14.98342474,0.0003315,69.9984,139.162,271.826,88.2519,6.1747e-05,6.44e-06,0.0,0 STARLINK-5614,1 55756U 23028R   24127.47593307  .00000644  00000-0  61747-4 0  9990,2 55756  69.9984 139.1620 0003315 271.8260  88.2519 14.98342474 65353,6950.154,96.106,574.323,569.715,0.0
55756.0,STARLINK-5614,PAYLOAD,2024-05-06 17:49:52,14.98354326,0.0003413,69.9985,138.4884,273.2276,86.8493,-0.00024426,-3.008e-05,0.0,0 STARLINK-5614,1 55756U 23028R   24127.74296786 -.00003008  00000-0 -24426-3 0  9992,2 55756  69.9985 138.4884 0003413 273.2276  86.8493 14.98354326 65398,6950.118,96.105,574.355,569.611,0.0
55756.0,STARLINK-5614,PAYLOAD,2024-05-07 05:02:49,14.98336241,0.000318,69.9986,137.3104,269.2507,90.8288,-4.2001e-05,-5.94e-06,0.0,0 STARLINK-5614,1 55756U 23028R   24128.21029462 -.00000594  00000-0 -42001-4 0  9997,2 55756  69.9986 137.3104 0003180 269.2507  90.8288 14.98336241 65466,6950.174,96.107,574.249,569.828,0.0
55756.0,STARLINK-5614,PAYLOAD,2024-05-07 09:51:13,14.98335632,0.0003183,69.9986,136.8054,269.3727,90.7067,-4.9472e-05,-6.83e-06,0.0,0 STARLINK-5614,1 55756U 23028R   24128.41057408 -.00000683  00000-0 -49472-4 0  9998,2 55756  69.9986 136.8054 0003183 269.3727  90.7067 14.98335632 65492,6950.175,96.107,574.253,569.828,0.0
55756.0,STARLINK-5614,PAYLOAD,2024-05-07 17:51:53,14.98333529,0.0003199,69.9987,135.9639,269.9729,90.1063,-3.874e-05,-5.55e-06,0.0,0 STARLINK-5614,1 55756U 23028R   24128.74437364 -.00000555  00000-0 -38740-4 0  9991,2 55756  69.9987 135.9639 0003199 269.9729  90.1063 14.98333529 65546,6950.182,96.107,574.27,569.824,0.0
55756.0,STARLINK-5614,PAYLOAD,2024-05-08 05:04:50,14.9833301,0.0003238,69.9985,134.7855,269.7527,90.3261,-1.7252e-05,-2.99e-06,0.0,0 STARLINK-5614,1 55756U 23028R   24129.21169251 -.00000299  00000-0 -17252-4 0  9991,2 55756  69.9985 134.7855 0003238 269.7527  90.3261 14.98333010 65614,6950.184,96.107,574.299,569.798,0.0
55756.0,STARLINK-5614,PAYLOAD,2024-05-08 09:53:14,14.98331931,0.0003233,69.9985,134.2806,269.6739,90.4049,-8.3677e-06,-1.93e-06,0.0,0 STARLINK-5614,1 55756U 23028R   24129.41197260 -.00000193  00000-0 -83677-5 0  9992,2 55756  69.9985 134.2806 0003233 269.6739  90.4049 14.98331931 65642,6950.187,96.107,574.299,569.805,0.0
55756.0,STARLINK-5614,PAYLOAD,2024-05-08 17:53:54,14.98332141,0.0003259,69.9984,133.4387,269.8584,90.2201,8.0592e-06,3e-08,0.0,0 STARLINK-5614,1 55756U 23028R   24129.74577167  .00000003  00000-0  80592-5 0  9997,2 55756  69.9984 133.4387 0003259 269.8584  90.2201 14.98332141 65691,6950.186,96.107,574.316,569.786,0.0
55756.0,STARLINK-5614,PAYLOAD,2024-05-09 05:06:51,14.98330052,0.0003302,69.9983,132.2601,269.38,90.6981,6.3807e-05,6.68e-06,0.0,0 STARLINK-5614,1 55756U 23028R   24130.21309138  .00000668  00000-0  63807-4 0  9998,2 55756  69.9983 132.2601 0003302 269.3800  90.6981 14.98330052 65767,6950.193,96.107,574.353,569.763,0.0
55756.0,STARLINK-5614,PAYLOAD,2024-05-09 09:55:15,14.98331898,0.0003299,69.9983,131.7552,269.4249,90.6532,7.0158e-05,7.44e-06,0.0,0 STARLINK-5614,1 55756U 23028R   24130.41336998  .00000744  00000-0  70158-4 0  9996,2 55756  69.9983 131.7552 0003299 269.4249  90.6532 14.98331898 65793,6950.187,96.107,574.345,569.759,0.0
55756.0,STARLINK-5614,PAYLOAD,2024-05-09 22:44:19,14.9833237,0.0003301,69.9983,130.4087,269.5285,90.5496,7.3765e-05,7.87e-06,0.0,0 STARLINK-5614,1 55756U 23028R   24130.94745004  .00000787  00000-0  73765-4 0  9990,2 55756  69.9983 130.4087 0003301 269.5285  90.5496 14.98332370 65870,6950.186,96.107,574.345,569.756,0.0
55756.0,STARLINK-5614,PAYLOAD,2024-05-10 09:57:15,14.98334884,0.0003281,69.9983,129.2303,269.423,90.6553,9.2408e-05,1.01e-05,0.0,0 STARLINK-5614,1 55756U 23028R   24131.41476784  .00001010  00000-0  92408-4 0  9994,2 55756  69.9983 129.2303 0003281 269.4230  90.6553 14.98334884 65948,6950.178,96.107,574.323,569.762,0.0
55756.0,STARLINK-5614,PAYLOAD,2024-05-11 09:59:16,14.98345091,0.0002863,69.9992,126.7062,265.2237,94.8595,0.00025986,3.01e-05,0.0,0 STARLINK-5614,1 55756U 23028R   24132.41616362  .00003010  00000-0  25986-3 0  9991,2 55756  69.9992 126.7062 0002863 265.2237  94.8595 14.98345091 66099,6950.146,96.106,574.001,570.021,0.0
55756.0,STARLINK-5614,PAYLOAD,2024-05-11 16:23:48,14.98345993,0.0002819,69.9994,126.0324,269.322,90.7616,6.7141e-05,7.09e-06,0.0,0 STARLINK-5614,1 55756U 23028R   24132.68319975  .00000709  00000-0  67141-4 0  9992,2 55756  69.9994 126.0324 0002819 269.3220  90.7616 14.98345993 66138,6950.143,96.106,573.968,570.049,0.0
